ONEWEB-0584             
1 54651U 22166K   23233.63177921  .00000130  00000+0  28352-3 0  9993
2 54651  87.9188  89.1811 0001550  73.2739 286.8565 13.21824973 35844
ONEWEB-0585             
1 54652U 22166L   23233.65489990 -.00000010  00000+0 -54725-4 0  9991
2 54652  87.9189  89.1771 0001728  91.7403 268.3929 13.21826320 35859
ONEWEB-0586             
1 54653U 22166M   23233.51612630 -.00000015  00000+0 -67624-4 0  9993
2 54653  87.9163  89.2607 0001500  77.9169 282.2133 13.21827565 35836
ONEWEB-0587             
1 54654U 22166N   23233.52767808  .00000088  00000+0  18170-3 0  9992
2 54654  87.9179  89.1976 0002452  88.2661 271.8753 13.21822854 35985
ONEWEB-0589             
1 54655U 22166P   23233.05983202  .00000418  00000+0  98053-3 0  9994
2 54655  87.9190  89.3010 0001457  44.5965 315.5286 13.21824727 35793
ONEWEB-0590             
1 54656U 22166Q   23233.31217335  .00000106  00000+0  22582-3 0  9999
2 54656  87.9199  89.2548 0001938  82.6147 277.5207 13.21829053 35806
ONEWEB-0591             
1 54657U 22166R   23233.32478610  .00000080  00000+0  16118-3 0  9995
2 54657  87.9191  89.2511 0001734  77.0109 283.1218 13.21824576 35832
ONEWEB-0592             
1 54658U 22166S   23233.62968259 -.00001593  00000+0 -38895-2 0  9999
2 54658  87.9180  89.1786 0002596  56.8923 303.2459 13.21832090 35763
